UNKNOWN                 
1 84188U          26062.35806059  .00182396  00000+0  92896-1 0  9994
2 84188  64.8752 184.3796 3516471   9.3248 355.8429  8.03354809 47595
UNKNOWN                 
1 84232U          26064.25666647  .00047215  00000+0  33956-1 0  9994
2 84232  20.3232 226.3769 6535780 150.6987 271.7412  3.21386572107322
UNKNOWN                 
1 84236U          26061.09175181  .00000940  00000+0  59819-2 0  9996
2 84236   9.3107 299.7920 6890498 164.3464 238.4347  2.62653933116069
UNKNOWN                 
1 84292U          26064.13060067  .00004353  00000+0  26626-2 0  9994
2 84292  23.8355  46.1733 4553972  78.5584 327.7814  6.22233157233190
UNKNOWN                 
1 84407U          26058.21812539 -.00000062  00000+0  15745-1 0  9996
2 84407  19.4512 300.0109 7208492 102.8288 339.5385  2.05796928 77447
UNKNOWN                 
1 84575U          26062.33697389 -.00000072  00000+0  51095-2 0  9994
2 84575  18.0132 131.5702 7115404  71.7416 349.0642  2.19867114 67238
UNKNOWN                 
1 84932U          26064.54212785  .00001184  00000+0  93440-2 0  9993
2 84932   2.0485 194.0687 6576679 150.2095 122.5717  3.00134142134269
UNKNOWN                 
1 85004U          26064.40626589  .00001664  00000+0  52142-3 0  9998
2 85004  98.4334  39.2805 0045519 274.3346 238.2787 14.41342709642802
UNKNOWN                 
1 85010U          26058.09966064  .00000996  00000+0  10809-2 0  9998
2 85010  99.2482 282.6795 0026672  51.5718 101.6401 13.75239596614418
UNKNOWN                 
1 85015U          26047.31079129  .00000502  00000+0  10515-3 0  9991
2 85015  74.0482 272.7196 0014854 167.0916 193.0634 14.62388436652196
UNKNOWN                 
1 85023U          26063.59155310  .00042415  00000+0  56013-2 0  9996
2 85023  99.8403 101.9821 0002440 119.1153  32.2081 14.79847878640915
UNKNOWN                 
1 85027U          26064.54250138  .00000201  00000+0  26726-3 0  9996
2 85027  66.0392 258.7388 0170493 146.1168 215.0929 13.74282794615997
UNKNOWN                 
1 85047U          26063.87936205  .00012881  00000+0  20702-1 0  9992
2 85047 102.1703  51.5490 0107189 197.3388 162.4062 13.46559718587706
UNKNOWN                 
1 85061U          26063.51871547  .00004761  00000+0  18714-1 0  9994
2 85061 102.3986  59.8220 0272197  30.2753  93.9886 12.77645307566221
UNKNOWN                 
1 85100U          26064.35171359  .00000514  00000+0  16866-3 0  9995
2 85100  74.0438  70.0476 0013928 277.0925 146.1226 14.40791621645249
UNKNOWN                 
1 85106U          26064.26068360  .00000760  00000+0  87546-3 0  9994
2 85106 100.0523 174.1780 0010764 160.8522 228.3409 13.73024864614392
UNKNOWN                 
1 85151U          26063.87564650  .00027142  00000+0  33440-2 0  9999
2 85151  98.3995 296.7871 0006615 244.8364 115.2163 14.82869721491689
UNKNOWN                 
1 85210U          26060.88089293  .00000270  00000+0  29587-3 0  9999
2 85210  99.8611 209.0501 0217187 112.2323  39.3903 13.71664727613000
UNKNOWN                 
1 85217U          26064.21167351  .00003873  00000+0  10211-2 0  9994
2 85217  98.0233 158.2200 0206242 238.7533 119.3307 14.37616275639706
UNKNOWN                 
1 85237U          26054.35491965  .00013478  00000+0  26977-2 0  9999
2 85237  65.5338  24.2147 0516167 354.4749   5.0755 14.01835433618525
UNKNOWN                 
1 85238U          26063.76590476  .00000076  00000+0  98440-4 0  9998
2 85238  99.0683 355.6270 0063087 339.7960  49.2011 13.88359787622222
UNKNOWN                 
1 85246U          26064.46273519  .00002545  00000+0  91026-3 0  9996
2 85246  97.9906  65.2169 0223808  60.1179 302.2033 14.21767755634824
UNKNOWN                 
1 85373U          26064.37098472  .00002745  00000+0  18686-2 0  9992
2 85373 100.4235 116.9063 0050304  22.1053  40.2527 14.00408499623699
UNKNOWN                 
1 87014U          26063.41703190  .00003422  00000+0  52111-2 0  9994
2 87014 100.4831  37.2361 0053477  38.8617 112.3900 13.52313145601955
UNKNOWN                 
1 87029U          26062.87882968  .00001484  00000+0  92545-3 0  9992
2 87029  98.7477 100.2460 0081356  23.6181 336.8689 14.04698837604392
UNKNOWN                 
1 87042U          26063.58950822  .00000761  00000+0  47496-3 0  9993
2 87042  98.7038 108.8276 0043038 222.5720 137.2110 14.07267279565475
UNKNOWN                 
1 87051U          26061.62372643  .00001408  00000+0  51733-3 0  9993
2 87051  65.7278  63.8530 0708861 104.7326 263.3326 13.46233684599330
UNKNOWN                 
1 87054U          26064.46398167  .00002308  00000+0  13022-2 0  9998
2 87054 100.0898 319.0489 0013200 114.8770 245.3770 14.11453652627993
UNKNOWN                 
1 87071U          26064.25987644  .00006748  00000+0  24266-2 0  9992
2 87071  61.2234  26.4076 0472426 279.1522  75.6365 13.86600827613925
UNKNOWN                 
1 87129U          26064.19306146  .00000217  00000+0  18997-2 0  9990
2 87129 102.2549 161.1346 0030796 282.9697  76.7929 12.42855547556911
UNKNOWN                 
1 87159U          26062.77621286  .00001613  00000+0  18699-2 0  9990
2 87159  90.3452  72.3182 0105038  18.1261 342.3599 13.66299392567759
UNKNOWN                 
1 87163U          26064.33456876  .00008017  00000+0  23450-2 0  9996
2 87163  65.6016  32.5043 0645757  27.6427 335.7442 13.64423275588781
UNKNOWN                 
1 87164U          26063.68439249  .00006338  00000+0  12624-2 0  9994
2 87164  65.2010  89.5469 0105545  16.2664 344.1780 14.59242263647729
UNKNOWN                 
1 87204U          26064.58107331  .00002809  00000+0  10969-2 0  9992
2 87204  98.5325 288.7453 0046438  80.2116 280.4306 14.29785767637279
UNKNOWN                 
1 87211U          26055.81893811  .00003419  00000+0  93562-3 0  9990
2 87211  99.0886  65.9782 0051590 299.6495 186.2543 14.47142657718480
UNKNOWN                 
1 87214U          26061.47965627  .00001769  00000+0  16007-2 0  9991
2 87214 100.3330  72.9871 0068963  50.2422 310.4777 13.84252622611276
UNKNOWN                 
1 87237U          26064.12974940  .00000311  00000+0  26730-3 0  9996
2 87237  99.2426 124.3928 0103807  62.0696 327.1913 13.91837662623225
UNKNOWN                 
1 87239U          26063.83703118  .00014976  00000+0  35471-2 0  9995
2 87239  82.8762  13.0378 0020027 128.8939 231.4051 14.53840289639791
UNKNOWN                 
1 87245U          26064.33500058  .00004276  00000+0  89295-3 0  9992
2 87245  65.6409 186.7690 0425871  79.8312 316.4843 14.16694518625908
UNKNOWN                 
1 87271U          26064.25043742  .00020404  00000+0  36117-2 0  9999
2 87271  65.7571  14.3115 0420241  29.9094 332.5300 14.22962217624104
UNKNOWN                 
1 87280U          26064.21021460  .00000354  00000+0  66667-3 0  9994
2 87280  64.6168  31.3869 0128092 245.2014 113.5656 13.48641010544972
UNKNOWN                 
1 87293U          26063.01645421  .00007302  00000+0  13851-2 0  9990
2 87293  65.8958 288.9754 0427561 315.8724  40.8971 14.19606920625527
UNKNOWN                 
1 87300U          26064.21663211  .00002013  00000+0  14046-2 0  9990
2 87300 100.1056  60.0255 0027061  74.0592 286.3548 13.99783508624656
UNKNOWN                 
1 87304U          26055.06946452  .00002205  00000+0  32596-3 0  9992
2 87304  74.0188 177.3609 0016746 130.9964 229.2662 14.75775931657298
UNKNOWN                 
1 87320U          26063.77536581  .00001374  00000+0  87272-3 0  9992
2 87320  66.5907 248.5322 0421054   2.1951 358.0836 13.70455101604982
UNKNOWN                 
1 87334U          26064.60661418  .00020707  00000+0  11415-1 0  9993
2 87334  90.0060 271.7021 0067078 337.7523  22.0754 14.10261519398314
UNKNOWN                 
1 87335U          26064.53220944  .00022948  00000+0  12443-1 0  9992
2 87335  89.9945 267.8853 0085575 318.0575  41.4076 14.10431709398631
UNKNOWN                 
1 87405U          26064.53604038  .00003343  00000+0  23607-2 0  9993
2 87405  82.7539 354.7802 0060147  90.0269 270.7791 13.96770610622714
UNKNOWN                 
1 87426U          26064.50188865  .00005759  00000+0  21756-2 0  9994
2 87426  65.7817 109.9861 0070431 257.0758 170.6140 14.30614420634429
UNKNOWN                 
1 87448U          26062.44540459  .00001518  00000+0  12352-2 0  9991
2 87448 100.4516 283.9416 0064081 355.1024   4.9496 13.90865565620459
UNKNOWN                 
1 87456U          26053.00608493  .00003756  00000+0  55206-3 0  9997
2 87456  65.7710 261.5960 0509514 328.3661  28.7697 14.15044008621577
UNKNOWN                 
1 87517U          26064.29723560  .00005400  00000+0  14711-2 0  9994
2 87517  65.8225  31.5263 0674407 267.2232 159.4638 13.62073668604154
UNKNOWN                 
1 87541U          26060.83200558  .00000129  00000+0  33234-3 0  9999
2 87541  99.6988 275.7697 0060247  71.0193 353.3780 13.35612304592596
UNKNOWN                 
1 87553U          26064.64108058  .00005542  00000+0  17117-2 0  9992
2 87553  65.6700 155.1638 0691885 190.7381 167.8233 13.54111386602471
UNKNOWN                 
1 87557U          26064.38903671  .00004626  00000+0  10149-1 0  9990
2 87557 101.7694 295.7909 0056329 205.6124 154.2198 13.28525902576003
UNKNOWN                 
1 87561U          26063.65627873 -.00000024  00000+0  14702-3 0  9991
2 87561 101.9955 123.8913 0175830 143.4406   8.7744 12.32165922552524
UNKNOWN                 
1 87565U          26058.44343733  .00001532  00000+0  84316-3 0  9998
2 87565  99.9521  62.5801 0171258 323.4628  35.4951 14.06233624627218
UNKNOWN                 
1 87569U          26063.98885065 -.00000034  00000+0  72681-4 0  9996
2 87569 101.9948 249.5187 0055785  92.1632  61.2283 12.68544171568895
UNKNOWN                 
1 87590U          26057.34773347  .00000541  00000+0  32741-3 0  9996
2 87590  98.7785  97.7213 0027564  71.6501 352.0635 14.10438633164905
